CCSDS_OMM_VERS = 2.0
CREATION_DATE  = 
ORIGINATOR     = 

OBJECT_NAME    = STARLINK-35480
OBJECT_ID      = 2025-245J
CENTER_NAME    = EARTH
REF_FRAME      = TEME
TIME_SYSTEM    = UTC
MEAN_ELEMENT_THEORY = SGP/SGP4

EPOCH          = 2025-11-26T22:00:05.999904
MEAN_MOTION    = 15.39596064
ECCENTRICITY   = .00014555
INCLINATION    = 53.1601
RA_OF_ASC_NODE = 43.9878
ARG_OF_PERICENTER = 77.4713
MEAN_ANOMALY   = 265.2103

EPHEMERIS_TYPE = 0
CLASSIFICATION_TYPE = U
NORAD_CAT_ID   = 66242
ELEMENT_SET_NO = 999
REV_AT_EPOCH   = 556
BSTAR          = .34473889E-3
MEAN_MOTION_DOT = .13403E-3
MEAN_MOTION_DDOT = 0

CCSDS_OMM_VERS = 2.0
CREATION_DATE  = 
ORIGINATOR     = 

OBJECT_NAME    = STARLINK-35495
OBJECT_ID      = 2025-245K
CENTER_NAME    = EARTH
REF_FRAME      = TEME
TIME_SYSTEM    = UTC
MEAN_ELEMENT_THEORY = SGP/SGP4

EPOCH          = 2025-11-26T22:00:05.999904
MEAN_MOTION    = 15.39596949
ECCENTRICITY   = .00017014
INCLINATION    = 53.1603
RA_OF_ASC_NODE = 44.0397
ARG_OF_PERICENTER = 92.7618
MEAN_ANOMALY   = 224.1764

EPHEMERIS_TYPE = 0
CLASSIFICATION_TYPE = U
NORAD_CAT_ID   = 66243
ELEMENT_SET_NO = 999
REV_AT_EPOCH   = 556
BSTAR          = .26089828E-3
MEAN_MOTION_DOT = .10042E-3
MEAN_MOTION_DDOT = 0

CCSDS_OMM_VERS = 2.0
CREATION_DATE  = 
ORIGINATOR     = 

OBJECT_NAME    = STARLINK-35517
OBJECT_ID      = 2025-245L
CENTER_NAME    = EARTH
REF_FRAME      = TEME
TIME_SYSTEM    = UTC
MEAN_ELEMENT_THEORY = SGP/SGP4

EPOCH          = 2025-11-26T22:00:05.999904
MEAN_MOTION    = 15.39589792
ECCENTRICITY   = .00017006
INCLINATION    = 53.1603
RA_OF_ASC_NODE = 44.0346
ARG_OF_PERICENTER = 96.2897
MEAN_ANOMALY   = 222.4990

EPHEMERIS_TYPE = 0
CLASSIFICATION_TYPE = U
NORAD_CAT_ID   = 66244
ELEMENT_SET_NO = 999
REV_AT_EPOCH   = 534
BSTAR          = .19445653E-3
MEAN_MOTION_DOT = .7378E-4
MEAN_MOTION_DDOT = 0

CCSDS_OMM_VERS = 2.0
CREATION_DATE  = 
ORIGINATOR     = 

OBJECT_NAME    = STARLINK-35503
OBJECT_ID      = 2025-245M
CENTER_NAME    = EARTH
REF_FRAME      = TEME
TIME_SYSTEM    = UTC
MEAN_ELEMENT_THEORY = SGP/SGP4

EPOCH          = 2025-11-26T22:00:05.999904
MEAN_MOTION    = 15.39578590
ECCENTRICITY   = .000157
INCLINATION    = 53.1601
RA_OF_ASC_NODE = 43.9819
ARG_OF_PERICENTER = 101.4265
MEAN_ANOMALY   = 243.0312

EPHEMERIS_TYPE = 0
CLASSIFICATION_TYPE = U
NORAD_CAT_ID   = 66245
ELEMENT_SET_NO = 999
REV_AT_EPOCH   = 551
BSTAR          = .71508825E-3
MEAN_MOTION_DOT = .28271E-3
MEAN_MOTION_DDOT = 0

CCSDS_OMM_VERS = 2.0
CREATION_DATE  = 
ORIGINATOR     = 

OBJECT_NAME    = STARLINK-35434
OBJECT_ID      = 2025-245N
CENTER_NAME    = EARTH
REF_FRAME      = TEME
TIME_SYSTEM    = UTC
MEAN_ELEMENT_THEORY = SGP/SGP4

EPOCH          = 2025-11-26T22:00:05.999904
MEAN_MOTION    = 15.41839860
ECCENTRICITY   = .0001264
INCLINATION    = 53.1595
RA_OF_ASC_NODE = 43.9375
ARG_OF_PERICENTER = 72.8801
MEAN_ANOMALY   = 293.7334

EPHEMERIS_TYPE = 0
CLASSIFICATION_TYPE = U
NORAD_CAT_ID   = 66246
ELEMENT_SET_NO = 999
REV_AT_EPOCH   = 534
BSTAR          = -.58096565E-1
MEAN_MOTION_DOT = -.2241838E-1
MEAN_MOTION_DDOT = 0

CCSDS_OMM_VERS = 2.0
CREATION_DATE  = 
ORIGINATOR     = 

OBJECT_NAME    = STARLINK-35481
OBJECT_ID      = 2025-245P
CENTER_NAME    = EARTH
REF_FRAME      = TEME
TIME_SYSTEM    = UTC
MEAN_ELEMENT_THEORY = SGP/SGP4

EPOCH          = 2025-11-26T22:00:05.999904
MEAN_MOTION    = 15.41830797
ECCENTRICITY   = .00011914
INCLINATION    = 53.1598
RA_OF_ASC_NODE = 43.9339
ARG_OF_PERICENTER = 75.9191
MEAN_ANOMALY   = 292.5453

EPHEMERIS_TYPE = 0
CLASSIFICATION_TYPE = U
NORAD_CAT_ID   = 66247
ELEMENT_SET_NO = 999
REV_AT_EPOCH   = 556
BSTAR          = -.58108765E-1
MEAN_MOTION_DOT = -.2241605E-1
MEAN_MOTION_DDOT = 0

CCSDS_OMM_VERS = 2.0
CREATION_DATE  = 
ORIGINATOR     = 

OBJECT_NAME    = STARLINK-35416
OBJECT_ID      = 2025-245Q
CENTER_NAME    = EARTH
REF_FRAME      = TEME
TIME_SYSTEM    = UTC
MEAN_ELEMENT_THEORY = SGP/SGP4

EPOCH          = 2025-11-26T22:00:05.999904
MEAN_MOTION    = 15.44586572
ECCENTRICITY   = .00011626
INCLINATION    = 53.1598
RA_OF_ASC_NODE = 43.9033
ARG_OF_PERICENTER = 76.3903
MEAN_ANOMALY   = 307.9948

EPHEMERIS_TYPE = 0
CLASSIFICATION_TYPE = U
NORAD_CAT_ID   = 66248
ELEMENT_SET_NO = 999
REV_AT_EPOCH   = 551
BSTAR          = -.49320894E-1
MEAN_MOTION_DOT = -.2068982E-1
MEAN_MOTION_DDOT = 0

CCSDS_OMM_VERS = 2.0
CREATION_DATE  = 
ORIGINATOR     = 

OBJECT_NAME    = STARLINK-35304
OBJECT_ID      = 2025-245R
CENTER_NAME    = EARTH
REF_FRAME      = TEME
TIME_SYSTEM    = UTC
MEAN_ELEMENT_THEORY = SGP/SGP4

EPOCH          = 2025-11-26T22:00:05.999904
MEAN_MOTION    = 15.47427778
ECCENTRICITY   = .00006206
INCLINATION    = 53.1599
RA_OF_ASC_NODE = 43.8758
ARG_OF_PERICENTER = 96.8327
MEAN_ANOMALY   = 300.7811

EPHEMERIS_TYPE = 0
CLASSIFICATION_TYPE = U
NORAD_CAT_ID   = 66249
ELEMENT_SET_NO = 999
REV_AT_EPOCH   = 535
BSTAR          = -.45320009E-1
MEAN_MOTION_DOT = -.2094594E-1
MEAN_MOTION_DDOT = 0

CCSDS_OMM_VERS = 2.0
CREATION_DATE  = 
ORIGINATOR     = 

OBJECT_NAME    = STARLINK-35338
OBJECT_ID      = 2025-245S
CENTER_NAME    = EARTH
REF_FRAME      = TEME
TIME_SYSTEM    = UTC
MEAN_ELEMENT_THEORY = SGP/SGP4

EPOCH          = 2025-11-26T20:20:11.912640
MEAN_MOTION    = 15.45406942
ECCENTRICITY   = .0001338
INCLINATION    = 53.1601
RA_OF_ASC_NODE = 44.2288
ARG_OF_PERICENTER = 42.7355
MEAN_ANOMALY   = 317.3756

EPHEMERIS_TYPE = 0
CLASSIFICATION_TYPE = U
NORAD_CAT_ID   = 66250
ELEMENT_SET_NO = 999
REV_AT_EPOCH   = 537
BSTAR          = -.74791985E-2
MEAN_MOTION_DOT = -.347852E-2
MEAN_MOTION_DDOT = 0

CCSDS_OMM_VERS = 2.0
CREATION_DATE  = 
ORIGINATOR     = 

OBJECT_NAME    = STARLINK-35485
OBJECT_ID      = 2025-245T
CENTER_NAME    = EARTH
REF_FRAME      = TEME
TIME_SYSTEM    = UTC
MEAN_ELEMENT_THEORY = SGP/SGP4

EPOCH          = 2025-11-26T17:11:58.659360
MEAN_MOTION    = 15.48855005
ECCENTRICITY   = .00023285
INCLINATION    = 53.1595
RA_OF_ASC_NODE = 44.8345
ARG_OF_PERICENTER = 208.2645
MEAN_ANOMALY   = 151.8238

EPHEMERIS_TYPE = 0
CLASSIFICATION_TYPE = U
NORAD_CAT_ID   = 66251
ELEMENT_SET_NO = 999
REV_AT_EPOCH   = 524
BSTAR          = -.60688093E-2
MEAN_MOTION_DOT = -.319461E-2
MEAN_MOTION_DDOT = 0

CCSDS_OMM_VERS = 2.0
CREATION_DATE  = 
ORIGINATOR     = 

OBJECT_NAME    = STARLINK-35483
OBJECT_ID      = 2025-245U
CENTER_NAME    = EARTH
REF_FRAME      = TEME
TIME_SYSTEM    = UTC
MEAN_ELEMENT_THEORY = SGP/SGP4

EPOCH          = 2025-11-26T22:00:05.999904
MEAN_MOTION    = 15.49732820
ECCENTRICITY   = .00009743
INCLINATION    = 53.1595
RA_OF_ASC_NODE = 43.8683
ARG_OF_PERICENTER = 88.7302
MEAN_ANOMALY   = 312.1796

EPHEMERIS_TYPE = 0
CLASSIFICATION_TYPE = U
NORAD_CAT_ID   = 66252
ELEMENT_SET_NO = 999
REV_AT_EPOCH   = 551
BSTAR          = -.2645048E-1
MEAN_MOTION_DOT = -.1344923E-1
MEAN_MOTION_DDOT = 0

CCSDS_OMM_VERS = 2.0
CREATION_DATE  = 
ORIGINATOR     = 

OBJECT_NAME    = STARLINK-35486
OBJECT_ID      = 2025-245V
CENTER_NAME    = EARTH
REF_FRAME      = TEME
TIME_SYSTEM    = UTC
MEAN_ELEMENT_THEORY = SGP/SGP4

EPOCH          = 2025-11-26T17:10:46.232832
MEAN_MOTION    = 15.48440029
ECCENTRICITY   = .00043506
INCLINATION    = 53.1605
RA_OF_ASC_NODE = 44.8280
ARG_OF_PERICENTER = 108.1490
MEAN_ANOMALY   = 251.9992

EPHEMERIS_TYPE = 0
CLASSIFICATION_TYPE = U
NORAD_CAT_ID   = 66253
ELEMENT_SET_NO = 999
REV_AT_EPOCH   = 524
BSTAR          = .17938761E-1
MEAN_MOTION_DOT = .1051372E-1
MEAN_MOTION_DDOT = 0

