STARLINK-35480          
1 66242U 25245J   25330.91673611  .00013403  00000+0  34474-3 0  9990
2 66242  53.1601  43.9878 0001455  77.4713 265.2103 15.39596064  5564
STARLINK-35495          
1 66243U 25245K   25330.91673611  .00010042  00000+0  26090-3 0  9992
2 66243  53.1603  44.0397 0001701  92.7618 224.1764 15.39596949  5562
STARLINK-35517          
1 66244U 25245L   25330.91673611  .00007378  00000+0  19446-3 0  9998
2 66244  53.1603  44.0346 0001700  96.2897 222.4990 15.39589792  5340
STARLINK-35503          
1 66245U 25245M   25330.91673611  .00028271  00000+0  71509-3 0  9992
2 66245  53.1601  43.9819 0001570 101.4265 243.0312 15.39578590  5515
STARLINK-35434          
1 66246U 25245N   25330.91673611 -.02241838  00000+0 -58097-1 0  9998
2 66246  53.1595  43.9375 0001264  72.8801 293.7334 15.41839860  5342
STARLINK-35481          
1 66247U 25245P   25330.91673611 -.02241605  00000+0 -58109-1 0  9995
2 66247  53.1598  43.9339 0001191  75.9191 292.5453 15.41830797  5564
STARLINK-35416          
1 66248U 25245Q   25330.91673611 -.02068982  00000+0 -49321-1 0  9997
2 66248  53.1598  43.9033 0001162  76.3903 307.9948 15.44586572  5517
STARLINK-35304          
1 66249U 25245R   25330.91673611 -.02094594  00000+0 -45320-1 0  9991
2 66249  53.1599  43.8758 0000620  96.8327 300.7811 15.47427778  5354
STARLINK-35338          
1 66250U 25245S   25330.84736010 -.00347852  00000+0 -74792-2 0  9990
2 66250  53.1601  44.2288 0001338  42.7355 317.3756 15.45406942  5373
STARLINK-35485          
1 66251U 25245T   25330.71665115 -.00319461  00000+0 -60688-2 0  9998
2 66251  53.1595  44.8345 0002328 208.2645 151.8238 15.48855005  5240
STARLINK-35483          
1 66252U 25245U   25330.91673611 -.01344923  00000+0 -26450-1 0  9991
2 66252  53.1595  43.8683 0000974  88.7302 312.1796 15.49732820  5512
STARLINK-35486          
1 66253U 25245V   25330.71581288  .01051372  00000+0  17939-1 0  9991
2 66253  53.1605  44.8280 0004350 108.1490 251.9992 15.48440029  5240
